[{"OBJECT_NAME":"SWARM B","OBJECT_ID":"2013-067A","EPOCH":"2026-03-09T22:20:48.706656","MEAN_MOTION":15.27862638,"ECCENTRICITY":0.00036996,"INCLINATION":87.749,"RA_OF_ASC_NODE":12.4162,"ARG_OF_PERICENTER":86.3179,"MEAN_ANOMALY":273.8493,"EPHEMERIS_TYPE":0,"CLASSIFICATION_TYPE":"U","NORAD_CAT_ID":39451,"ELEMENT_SET_NO":999,"REV_AT_EPOCH":66808,"BSTAR":0.00020534236,"MEAN_MOTION_DOT":5.616e-5,"MEAN_MOTION_DDOT":0},{"OBJECT_NAME":"STARLINK-36071","OBJECT_ID":"2025-278T","EPOCH":"2026-03-09T19:38:25.694016","MEAN_MOTION":15.27568665,"ECCENTRICITY":0.00013435,"INCLINATION":43.0007,"RA_OF_ASC_NODE":113.2174,"ARG_OF_PERICENTER":263.7429,"MEAN_ANOMALY":96.3269,"EPHEMERIS_TYPE":0,"CLASSIFICATION_TYPE":"U","NORAD_CAT_ID":66808,"ELEMENT_SET_NO":999,"REV_AT_EPOCH":1523,"BSTAR":0.0010319124,"MEAN_MOTION_DOT":0.00028233,"MEAN_MOTION_DDOT":0}]
